{
    "links": {
        "self": "http://www.neowsapp.com/rest/v1/neo/3638338?api_key=iIulBulltgU6a56xZRHN4H3l9WmuAYTsLGpBGhQ2"
    },
    "id": "3638338",
    "neo_reference_id": "3638338",
    "name": "(2013 JT17)",
    "designation": "2013 JT17",
    "nasa_jpl_url": "http://ssd.jpl.nasa.gov/sbdb.cgi?sstr=3638338",
    "absolute_magnitude_h": 24.1,
    "estimated_diameter": {
        "kilometers": {
            "estimated_diameter_min": 0.040230458,
            "estimated_diameter_max": 0.0899580388
        },
        "meters": {
            "estimated_diameter_min": 40.2304579834,
            "estimated_diameter_max": 89.9580388169
        },
        "miles": {
            "estimated_diameter_min": 0.0249980399,
            "estimated_diameter_max": 0.0558973165
        },
        "feet": {
            "estimated_diameter_min": 131.9896957704,
            "estimated_diameter_max": 295.1379320721
        }
    },
    "is_potentially_hazardous_asteroid": false,
    "close_approach_data": [
        {
            "close_approach_date": "2013-06-01",
            "close_approach_date_full": "2013-Jun-01 01:42",
            "epoch_date_close_approach": 1370050920000,
            "relative_velocity": {
                "kilometers_per_second": "10.9153851468",
                "kilometers_per_hour": "39295.3865284271",
                "miles_per_hour": "24416.625034844"
            },
            "miss_distance": {
                "astronomical": "0.0984024127",
                "lunar": "38.2785385403",
                "kilometers": "14720791.342780949",
                "miles": "9147075.5848731362"
            },
            "orbiting_body": "Earth"
        }
    ],
    "orbital_data": {
        "orbit_id": "8",
        "orbit_determination_date": "2017-04-06 08:45:54",
        "first_observation_date": "2013-05-09",
        "last_observation_date": "2013-06-05",
        "data_arc_in_days": 27,
        "observations_used": 16,
        "orbit_uncertainty": "7",
        "minimum_orbit_intersection": ".100347",
        "jupiter_tisserand_invariant": "3.243",
        "epoch_osculation": "2459000.5",
        "eccentricity": ".5678838742090558",
        "semi_major_axis": "2.421387859336942",
        "inclination": "13.07087777630424",
        "ascending_node_longitude": "54.33948166846213",
        "orbital_period": "1376.242507809899",
        "perihelion_distance": "1.046320740813907",
        "perihelion_argument": "223.1680531166468",
        "aphelion_distance": "3.796454977859977",
        "perihelion_time": "2459220.885335903189",
        "mean_anomaly": "302.3512059285214",
        "mean_motion": ".2615818055009",
        "equinox": "J2000",
        "orbit_class": {
            "orbit_class_type": "AMO",
            "orbit_class_description": "Near-Earth asteroid orbits similar to that of 1221 Amor",
            "orbit_class_range": "1.017 AU < q (perihelion) < 1.3 AU"
        }
    },
    "is_sentry_object": false
}